{
"type": "FeatureCollection",
"name": "guwahati_boundary",
"crs": { "type": "name", "properties": { "name": "urn:ogc:def:crs:OGC:1.3:CRS84" } },
"features": [
{"type":"Feature","properties":{"shapeName":"Guwahati","shapeISO":"","shapeID":"7132399B10647404007859","shapeGroup":"IND","shapeType":"ADM3"},"geometry":{"type":"MultiPolygon","coordinates":[[[[91.662248658748638,26.161625664692735],[91.663288096968131,26.156403925700658],[91.66180695762506,26.150780963170973],[91.655469489125664,26.143978144975449],[91.651921893880342,26.138651652052147],[91.652281166742512,26.1313882082992],[91.66114586419036,26.125334104485376],[91.661704451998901,26.124970993316765],[91.674895192459246,26.116396347013847],[91.677290345173333,26.115660377824213],[91.680376725805331,26.11471201214971],[91.683846999139746,26.111562097113165],[91.686033001921544,26.107949945833411],[91.691295460417223,26.104248651953753],[91.699132295718925,26.101179156093224],[91.702381769303258,26.102206151292876],[91.70796906831788,26.103972015096474],[91.713165907780478,26.108197373609983],[91.713662079041796,26.109452382021857],[91.713868367331372,26.109970646927877],[91.713622589810711,26.110327797389971],[91.713191220098793,26.110699662559455],[91.713449090802953,26.112863721883286],[91.713447026858887,26.113476922821803],[91.71417168167784,26.114896321008473],[91.714708198324729,26.115968386631778],[91.714846486176441,26.117072034646753],[91.715069240153355,26.11872629168505],[91.715172545276801,26.119470463591085],[91.715758566005093,26.120733660330188],[91.717132007935902,26.122157324900684],[91.717995822049602,26.122785441994608],[91.719105743735156,26.123087511679387],[91.719702290128623,26.122872993693761],[91.720213992681693,26.123055321346044],[91.720819283183403,26.123564607420747],[91.721895253663092,26.124408161607448],[91.723430910807963,26.125687297930483],[91.723670347208838,26.12640700378023],[91.723655899600146,26.127707257084296],[91.723698381774966,26.12872279222313],[91.723347862014293,26.13004971312381],[91.722848089867512,26.131728113361817],[91.72283535276938,26.132228592375668],[91.72440206080654,26.134740352984977],[91.725161792782558,26.135595753940947],[91.726258524111643,26.137700826731816],[91.726947231229815,26.139089076899438],[91.728177962443056,26.141148336426625],[91.729109729330617,26.142585733644751],[91.730831465200026,26.144317642645149],[91.731886096566143,26.145140728262049],[91.733015908557377,26.14735928560259],[91.734887631558991,26.151187758908009],[91.736546184658778,26.154588287119793],[91.737580889746312,26.155673543099567],[91.738741266096611,26.157706709696924],[91.739389685385731,26.158912445153248],[91.740569342301342,26.160985476898304],[91.741261312159907,26.162305499099546],[91.741613822120257,26.164220422834319],[91.741560281881561,26.166048043982073],[91.741046504592589,26.167912227967008],[91.740428298027609,26.169724921268141],[91.739770587842429,26.170793467844305],[91.740346813154986,26.172030720941052],[91.743764305278546,26.172320290049413],[91.744515686150066,26.172372799665027],[91.745921407447042,26.172120815922995],[91.7471675602348,26.170871548782998],[91.749488257177404,26.168526889404461],[91.7508332742363,26.167017231659941],[91.753061261867799,26.164679870279826],[91.754994162150922,26.163460060433465],[91.757535892667363,26.162107615873822],[91.760864368995499,26.16113674376578],[91.763154374774615,26.160853677655155],[91.765801317876594,26.160794120951948],[91.768630819756595,26.161173514346274],[91.770607924416254,26.161973510768973],[91.772410721577614,26.16384563306957],[91.77379549316754,26.165725849268597],[91.775145255948871,26.167533253656757],[91.777102526960107,26.169821485073555],[91.777671563092213,26.170930245734326],[91.778301875431282,26.17240343686916],[91.778818013440628,26.17427812493554],[91.779106409832991,26.175917060224208],[91.780181258858079,26.179120571257386],[91.78109722735519,26.18102253036551],[91.782321935808739,26.182351268796083],[91.784683132820362,26.182245300780039],[91.787898719050702,26.18154997375234],[91.791244587367885,26.180322998107954],[91.796234715859498,26.179478105730027],[91.803615171303193,26.17860715909319],[91.805539582885501,26.178336088139986],[91.807154537751785,26.178887677424427],[91.80964565712145,26.179958368883661],[91.812162905393848,26.182016383749158],[91.812912100912797,26.183150040342127],[91.813983259120164,26.185877763248243],[91.81455001457158,26.187558829976069],[91.815028355874006,26.188820699315897],[91.816201482812232,26.190284946692998],[91.819021481556206,26.190938141382162],[91.823791713217076,26.19137097429109],[91.827799880959788,26.191543171080525],[91.831084684410712,26.192279964049135],[91.831846028871212,26.193176571941308],[91.832264324239247,26.194007221755953],[91.832413734906027,26.194999530104269],[91.831520103769833,26.19670592983482],[91.830887452294121,26.197644068419095],[91.829995753801029,26.199160155416905],[91.828317423710189,26.202169365224051],[91.827797235154321,26.203762919822964],[91.827749169988238,26.204708099199479],[91.827052376166307,26.206969428296532],[91.826821993240458,26.208582110576003],[91.818366999937155,26.205668999624663],[91.813553000070954,26.206996999711805],[91.793677999939803,26.202150000122458],[91.779532999648268,26.197744000185537],[91.76167299980915,26.199888000131125],[91.760369524234193,26.200873554570933],[91.760080053151967,26.200709741261619],[91.758060879106324,26.199967730426465],[91.755595643124479,26.199113185625095],[91.753153856065637,26.198032939768382],[91.751012562180051,26.196586491773246],[91.748191112829659,26.194399654420579],[91.74652337855116,26.193157025176617],[91.74517266788439,26.191194509319189],[91.743119113656235,26.189391121303231],[91.741924910206478,26.188352342286805],[91.739674410745522,26.185530649220141],[91.738144741286817,26.183543821090495],[91.735856139349437,26.181333457473158],[91.73409755555781,26.178393904655024],[91.73333217583928,26.176726601151756],[91.732428317612801,26.1751295293044],[91.731447258883975,26.174081356869181],[91.729513300998121,26.173171095469741],[91.727594836632477,26.172548942679612],[91.722173785391931,26.172272236574486],[91.717575754117831,26.172087791018782],[91.712952539128423,26.17209683639993],[91.710841882446971,26.17210096428812],[91.708870150337248,26.172242622798876],[91.704335014949038,26.172568448974801],[91.701499686361501,26.172756009782063],[91.698630575640607,26.172977073033564],[91.693934645067884,26.172956575685475],[91.688914231007004,26.172853748102057],[91.684099909183544,26.172613448352024],[91.680561346728837,26.172285587010265],[91.677331937918666,26.171751708974227],[91.67423086686108,26.170955489704113],[91.670110554558505,26.169021941009817],[91.66807255860175,26.167066084632154],[91.665230739607011,26.16456468061557],[91.662248658748638,26.161625664692735]]]]}}
]
}
